[{"OBJECT_NAME":"WORLDVIEW-2 (WV-2)","OBJECT_ID":"2009-055A","EPOCH":"2026-03-09T22:27:15.689664","MEAN_MOTION":14.37910721,"ECCENTRICITY":0.00050548,"INCLINATION":98.4692,"RA_OF_ASC_NODE":143.7977,"ARG_OF_PERICENTER":144.7175,"MEAN_ANOMALY":215.4347,"EPHEMERIS_TYPE":0,"CLASSIFICATION_TYPE":"U","NORAD_CAT_ID":35946,"ELEMENT_SET_NO":999,"REV_AT_EPOCH":86138,"BSTAR":7.9928144e-5,"MEAN_MOTION_DOT":1.98e-6,"MEAN_MOTION_DDOT":0},{"OBJECT_NAME":"SL-8 R\/B","OBJECT_ID":"1979-089B","EPOCH":"2026-03-09T12:53:53.849184","MEAN_MOTION":14.42350739,"ECCENTRICITY":0.00171642,"INCLINATION":74.0668,"RA_OF_ASC_NODE":91.3256,"ARG_OF_PERICENTER":264.0643,"MEAN_ANOMALY":95.8558,"EPHEMERIS_TYPE":0,"CLASSIFICATION_TYPE":"U","NORAD_CAT_ID":11574,"ELEMENT_SET_NO":999,"REV_AT_EPOCH":43608,"BSTAR":0.00011654827,"MEAN_MOTION_DOT":3.59e-6,"MEAN_MOTION_DDOT":0}]
